{"version": 0.6, "generator": "Overpass API 0.7.62.1 084b4234", "osm3s": {"timestamp_osm_base": "2024-10-06T14:17:44Z", "copyright": "The data included in this document is from www.openstreetmap.org. The data is made available under ODbL."}, "elements": [{"type": "node", "id": 3255591988, "lat": 40.4192082, "lon": -3.6888851, "tags": {"addr:city": "Madrid", "addr:housenumber": "2", "addr:postcode": "28014", "addr:street": "Calle de Alfonso XII", "amenity": "charging_station", "capacity": "1", "operator": "IBIL", "socket:type2": "1"}}, {"type": "node", "id": 3716938034, "lat": 40.4584994, "lon": -3.6166489, "tags": {"amenity": "charging_station", "capacity": "2", "operator": "CEPSA"}}, {"type": "node", "id": 4159123218, "lat": 40.4074003, "lon": -3.7201692, "tags": {"operator": "IBIL", "addr:city": "Madrid", "addr:postcode": "28005", "addr:street": "Calle Chulapos", "amenity": "charging_station", "authentication:membership_card": "yes", "capacity": "1", "fee": "yes", "motorcar": "yes", "nohousenumber": "yes", "opening_hours": "24/7", "parking:fee": "no", "socket:type2": "1"}}, {"type": "node", "id": 4429212790, "lat": 40.4351966, "lon": -3.7092182, "tags": {"addr:city": "Madrid", "addr:housenumber": "42", "addr:postcode": "28015", "addr:street": "Calle de Fern\u00e1ndez de los R\u00edos", "amenity": "charging_station", "capacity": "1", "fee": "yes", "operator": "Ibil", "socket:schuko": "1", "socket:type2": "1"}}, {"type": "node", "id": 4818290657, "lat": 40.4057011, "lon": -3.6997728, "tags": {"addr:city": "Madrid", "addr:country": "ES", "addr:housenumber": "1", "addr:postcode": "28012", "addr:street": "Ronda de Valencia", "amenity": "charging_station", "authentication:membership_card": "yes", "capacity": "1", "fee": "yes", "motorcar": "yes", "opening_hours": "24/7", "operator": "GIC", "parking:fee": "no", "socket:schuko": "1", "socket:type2": "1"}}, {"type": "node", "id": 4818306257, "lat": 40.4292455, "lon": -3.683721, "tags": {"addr:city": "Madrid", "addr:housenumber": "74", "addr:postcode": "28001", "addr:street": "Calle de Vel\u00e1zquez", "amenity": "charging_station", "authentication:membership_card": "yes", "capacity": "4", "fee": "yes", "motorcar": "no", "opening_hours": "24/7", "operator": "IBIL", "parking:fee": "no", "scooter": "only", "socket:schuko": "4"}}, {"type": "node", "id": 4818720608, "lat": 40.4381069, "lon": -3.7002386, "tags": {"addr:city": "Madrid", "addr:housenumber": "115", "addr:postcode": "28010", "addr:street": "Calle de Santa Engracia", "amenity": "charging_station", "authentication:membership_card": "yes", "capacity": "1", "fee": "yes", "motorcar": "yes", "opening_hours": "24/7", "operator": "GIC", "parking:fee": "no", "socket:schuko": "1", "socket:type2": "1"}}, {"type": "node", "id": 4935944078, "lat": 40.4146695, "lon": -3.6698208, "tags": {"addr:city": "Madrid", "addr:housenumber": "62", "addr:postcode": "28009", "addr:street": "Calle del Doctor Esquerdo", "amenity": "charging_station", "capacity": "2", "motorcar": "yes", "operator": "Metro", "socket:chademo": "1"}}, {"type": "node", "id": 5272672814, "lat": 40.453639, "lon": -3.6560371, "tags": {"addr:city": "Madrid", "addr:housenumber": "29", "addr:postcode": "28043", "addr:street": "Calle de Bueso Pineda", "amenity": "charging_station", "capacity": "1", "operator": "GIC", "socket:schuko": "1", "socket:type2": "1"}}, {"type": "node", "id": 5272701284, "lat": 40.4319567, "lon": -3.689157, "tags": {"addr:city": "Madrid", "addr:housenumber": "33", "addr:postcode": "28046", "addr:street": "Paseo de la Castellana", "amenity": "charging_station", "capacity": "1", "operator": "GIC", "socket:schuko": "1", "socket:type2": "1"}}, {"type": "node", "id": 5272722427, "lat": 40.4354833, "lon": -3.6879729, "tags": {"addr:city": "Madrid", "addr:housenumber": "52", "addr:postcode": "28046", "addr:street": "Paseo de la Castellana", "amenity": "charging_station", "capacity": "1", "operator": "IBIL", "socket:type2": "1"}}, {"type": "node", "id": 5272733211, "lat": 40.4454625, "lon": -3.6907904, "tags": {"addr:city": "Madrid", "addr:housenumber": "106", "addr:postcode": "28046", "addr:street": "Paseo de la Castellana", "amenity": "charging_station", "capacity": "1", "operator": "IBIL", "socket:type2": "1"}}, {"type": "node", "id": 5272737316, "lat": 40.4584552, "lon": -3.6896113, "tags": {"addr:city": "Madrid", "addr:housenumber": "162", "addr:postcode": "28046", "addr:street": "Paseo de la Castellana", "amenity": "charging_station", "capacity": "1", "operator": "IBIL", "socket:type2": "1"}}, {"type": "node", "id": 5272750956, "lat": 40.4782078, "lon": -3.686397, "tags": {"addr:city": "Madrid", "addr:housenumber": "259c", "addr:postcode": "28029", "addr:street": "Paseo de la Castellana", "amenity": "charging_station", "capacity": "1", "operator": "GIC", "socket:schuko": "1", "socket:type2": "1"}}, {"type": "node", "id": 5272752785, "lat": 40.4350772, "lon": -3.6807422, "tags": {"addr:city": "Madrid", "addr:housenumber": "105", "addr:postcode": "28006", "addr:street": "Calle de Castell\u00f3", "amenity": "charging_station", "capacity": "1", "operator": "GIC", "socket:schuko": "1", "socket:type2": "1"}}, {"type": "node", "id": 5272756434, "lat": 40.3998816, "lon": -3.6751787, "tags": {"addr:city": "Madrid", "addr:housenumber": "4", "addr:postcode": "28007", "addr:street": "Calle del Cerro de la Plata", "amenity": "charging_station", "capacity": "1", "operator": "GIC", "socket:schuko": "1", "socket:type2": "1"}}, {"type": "node", "id": 5272770909, "lat": 40.429555, "lon": -3.7024739, "tags": {"addr:city": "Madrid", "addr:housenumber": "114", "addr:postcode": "28010", "addr:street": "Calle de Fuencarral", "amenity": "charging_station", "capacity": "1", "operator": "IBIL", "socket:type2": "1"}}, {"type": "node", "id": 5272782868, "lat": 40.4259414, "lon": -3.6925629, "tags": {"addr:city": "Madrid", "addr:housenumber": "24", "addr:postcode": "28004", "addr:street": "Calle de G\u00e9nova", "amenity": "charging_station", "capacity": "1", "operator": "GIC", "socket:schuko": "1", "socket:type2": "1"}}, {"type": "node", "id": 5272788795, "lat": 40.4249657, "lon": -3.6810768, "tags": {"socket:type2": "1", "addr:city": "Madrid", "addr:housenumber": "36", "addr:postcode": "28001", "addr:street": "Calle de Goya", "amenity": "charging_station", "capacity": "1", "operator": "GIC", "socket:schuko": "1"}}, {"type": "node", "id": 5272791560, "lat": 40.4246075, "lon": -3.6712697, "tags": {"socket:type2": "1", "addr:city": "Madrid", "addr:housenumber": "123", "addr:postcode": "28009", "addr:street": "Calle de Goya", "amenity": "charging_station", "capacity": "1", "operator": "IBIL", "scooter": "yes"}}, {"type": "node", "id": 5272794052, "lat": 40.4184868, "lon": -3.6783557, "tags": {"addr:city": "Madrid", "addr:housenumber": "1", "addr:postcode": "28009", "addr:street": "Calle de Ibiza", "addr:unit": "1", "amenity": "charging_station", "capacity": "4", "operator": "IBIL", "scooter": "only", "socket:schuko": "4"}}, {"type": "node", "id": 5272798047, "lat": 40.430516, "lon": -3.699163, "tags": {"socket:type2": "1", "addr:city": "Madrid", "addr:housenumber": "16", "addr:postcode": "28010", "addr:street": "Calle de Manuel Silvela", "amenity": "charging_station", "capacity": "1", "operator": "GIC", "socket:schuko": "1"}}, {"type": "node", "id": 5272800055, "lat": 40.4672571, "lon": -3.6698656, "tags": {"addr:city": "Madrid", "addr:housenumber": "10", "addr:postcode": "28016", "addr:street": "Calle del Cardenal Marcelo Sp\u00ednola", "amenity": "charging_station", "capacity": "1", "operator": "GIC", "socket:schuko": "1", "socket:type2": "1"}}, {"type": "node", "id": 5272801990, "lat": 40.4162039, "lon": -3.6922243, "tags": {"addr:city": "Madrid", "addr:housenumber": "1", "addr:postcode": "28014", "addr:street": "Plaza de la Lealtad", "amenity": "charging_station", "capacity": "1", "operator": "GIC", "socket:schuko": "1", "socket:type2": "1"}}, {"type": "node", "id": 5272806819, "lat": 40.4224735, "lon": -3.7076404, "tags": {"capacity": "2", "operator": "IBIL", "addr:city": "Madrid", "addr:housenumber": "14", "addr:postcode": "28015", "addr:street": "Calle de San Bernardo", "amenity": "charging_station", "scooter": "only", "socket:schuko": "2"}}, {"type": "node", "id": 5272810131, "lat": 40.4322458, "lon": -3.7047573, "tags": {"addr:city": "Madrid", "addr:housenumber": "122", "addr:postcode": "28015", "addr:street": "Calle de San Bernardo", "amenity": "charging_station", "capacity": "1", "operator": "IBIL", "socket:type2": "1"}}, {"type": "node", "id": 5274102838, "lat": 40.4968532, "lon": -3.6608874, "tags": {"parking:fee": "no", "opening_hours": "24/7", "fee": "no", "amenity": "charging_station", "operator": "Tesla Motors Inc.", "addr:country": "ES", "access": "customers", "socket:tesla_supercharger": "3"}}, {"type": "node", "id": 5275394672, "lat": 40.43294, "lon": -3.685803, "tags": {"addr:city": "Madrid", "addr:housenumber": "4b", "addr:postcode": "28006", "addr:street": "Calle de Juan Bravo", "amenity": "charging_station", "capacity": "15", "covered": "yes", "motorcar": "yes", "operator": "Serrano Park I", "scooter": "yes", "socket:schuko": "15"}}, {"type": "node", "id": 5275433698, "lat": 40.4357084, "lon": -3.6869859, "tags": {"addr:city": "Madrid", "addr:housenumber": "3", "addr:postcode": "28006", "addr:street": "Calle de los Hermanos B\u00e9cquer", "amenity": "charging_station", "capacity": "15", "covered": "yes", "motorcar": "yes", "operator": "Serrano Park I", "scooter": "yes", "socket:schuko": "15"}}, {"type": "node", "id": 5275443364, "lat": 40.4304848, "lon": -3.6878445, "tags": {"addr:city": "Madrid", "addr:housenumber": "2", "addr:postcode": "28001", "addr:street": "Calle de Jos\u00e9 Ortega y Gasset", "amenity": "charging_station", "capacity": "15", "covered": "yes", "motorcar": "yes", "operator": "Serrano Park II", "scooter": "yes", "socket:schuko": "15"}}, {"type": "node", "id": 5275476145, "lat": 40.4243351, "lon": -3.6893834, "tags": {"addr:city": "Madrid", "addr:postcode": "28001", "addr:street": "Calle de la Armada Espa\u00f1ola", "amenity": "charging_station", "capacity": "15", "covered": "yes", "motorcar": "yes", "operator": "Serrano Park III", "scooter": "yes", "socket:schuko": "15"}}, {"type": "node", "id": 5275504463, "lat": 40.4218595, "lon": -3.6965009, "tags": {"addr:city": "Madrid", "addr:housenumber": "34", "addr:postcode": "28004", "addr:street": "Calle de Augusto Figueroa", "amenity": "charging_station", "capacity": "6", "covered": "yes", "motorcar": "yes", "scooter": "yes", "socket:schuko": "6"}}, {"type": "node", "id": 5275524357, "lat": 40.4170475, "lon": -3.712886, "tags": {"addr:city": "Madrid", "addr:housenumber": "8", "addr:postcode": "28013", "addr:street": "Calle de Bail\u00e9n", "amenity": "charging_station", "capacity": "6", "covered": "yes", "motorcar": "yes", "scooter": "yes", "socket:schuko": "6"}}, {"type": "node", "id": 5275539774, "lat": 40.4201625, "lon": -3.6956919, "tags": {"addr:city": "Madrid", "addr:housenumber": "1", "addr:postcode": "28004", "addr:street": "Plaza del Rey", "amenity": "charging_station", "capacity": "4", "covered": "yes", "motorcar": "yes", "scooter": "yes", "socket:schuko": "4"}}, {"type": "node", "id": 5275556892, "lat": 40.4577804, "lon": -3.6943349, "tags": {"socket:schuko": "2", "addr:city": "Madrid", "addr:housenumber": "50", "addr:postcode": "28020", "addr:street": "Calle de Orense", "amenity": "charging_station", "capacity": "2", "covered": "yes", "motorcar": "yes", "scooter": "yes"}}, {"type": "node", "id": 5275616000, "lat": 40.472288, "lon": -3.6790375, "tags": {"addr:city": "Madrid", "addr:housenumber": "26", "addr:postcode": "28036", "addr:street": "Calle de la Hiedra", "amenity": "charging_station", "capacity": "36", "covered": "yes", "motorcar": "yes", "operator": "EMT", "scooter": "yes", "socket:cee_blue": "25", "socket:chademo": "1", "socket:type2": "9", "socket:type2_combo": "1"}}, {"type": "node", "id": 5275655961, "lat": 40.4302766, "lon": -3.67936, "tags": {"socket:type2_combo": "1", "addr:city": "Madrid", "addr:postcode": "28006", "addr:street": "Plaza del Marqu\u00e9s de Salamanca", "amenity": "charging_station", "capacity": "5", "covered": "yes", "motorcar": "yes", "operator": "EMT", "scooter": "yes", "socket:chademo": "1", "socket:schuko": "1", "socket:type2": "2"}}, {"type": "node", "id": 5275664769, "lat": 40.415417, "lon": -3.7273573, "tags": {"addr:city": "Madrid", "addr:housenumber": "51", "addr:postcode": "28011", "addr:street": "Avenida de Portugal", "amenity": "charging_station", "capacity": "20", "covered": "yes", "motorcar": "yes", "operator": "EMT", "scooter": "yes", "socket:schuko": "20"}}, {"type": "node", "id": 5275729248, "lat": 40.4148314, "lon": -3.7033983, "tags": {"addr:city": "Madrid", "addr:housenumber": "12", "addr:postcode": "28012", "addr:street": "Calle de Carretas", "amenity": "charging_station", "capacity": "7", "covered": "yes", "motorcar": "yes", "operator": "EMT", "scooter": "yes", "socket:chademo": "1", "socket:schuko": "2", "socket:type2": "3", "socket:type2_combo": "1"}}, {"type": "node", "id": 5275747389, "lat": 40.429402, "lon": -3.7084165, "tags": {"addr:city": "Madrid", "addr:housenumber": "9", "addr:postcode": "28015", "addr:street": "Calle de Alberto Aguilera", "amenity": "charging_station", "capacity": "3", "operator": "IBIL", "socket:chademo": "1", "socket:type2": "1", "socket:type2_combo": "1"}}, {"type": "node", "id": 5275764385, "lat": 40.4648873, "lon": -3.6361033, "tags": {"addr:city": "Madrid", "addr:housenumber": "105", "addr:postcode": "28043", "addr:street": "Avenida de Machupichu", "amenity": "charging_station", "capacity": "3", "motorcar": "yes", "operator": "GIC", "scooter": "yes", "socket:chademo": "1", "socket:chademo:output": "50 kW", "socket:type2": "1", "socket:type2:output": "43 kW", "socket:type2_combo": "1", "socket:type2_combo:output": "50 kW"}}, {"type": "node", "id": 5282685096, "lat": 40.4203142, "lon": -3.6877202, "tags": {"addr:city": "Madrid", "addr:housenumber": "77", "addr:postcode": "28009", "addr:street": "Calle de Alcal\u00e1", "amenity": "charging_station", "capacity": "15", "covered": "yes", "operator": "Serrano Park III"}}, {"type": "node", "id": 6376258844, "lat": 40.3825211, "lon": -3.6261666, "tags": {"amenity": "charging_station", "parking:fee": "no", "operator": "Wallbox"}}, {"type": "node", "id": 6877112295, "lat": 40.3722008, "lon": -3.6389927, "tags": {"amenity": "charging_station"}}, {"type": "node", "id": 6877112296, "lat": 40.3838413, "lon": -3.6319503, "tags": {"amenity": "charging_station"}}, {"type": "node", "id": 6877112297, "lat": 40.3840216, "lon": -3.6319325, "tags": {"amenity": "charging_station"}}, {"type": "node", "id": 7180629563, "lat": 40.4645565, "lon": -3.61895, "tags": {"parking:fee": "yes", "operator:wikipedia": "es:Iberdrola", "fixme": "A\u00f1adir informaci\u00f3n tarifaria, tipo de cargador y capacidad.", "operator:wikidata": "Q1437502", "operator": "Iberdrola", "amenity": "charging_station"}}, {"type": "node", "id": 7646965228, "lat": 40.4337067, "lon": -3.5998759, "tags": {"capacity": "2", "amenity": "charging_station"}}, {"type": "node", "id": 7701545695, "lat": 40.375969, "lon": -3.6390802, "tags": {"amenity": "charging_station"}}]}