{"version": 0.6, "generator": "Overpass API 0.7.62.1 084b4234", "osm3s": {"timestamp_osm_base": "2024-10-06T15:52:49Z", "copyright": "The data included in this document is from www.openstreetmap.org. The data is made available under ODbL."}, "elements": [{"type": "node", "id": 167301896, "lat": 40.4094884, "lon": -3.6938073, "tags": {"name": "Bar", "amenity": "bar"}}, {"type": "node", "id": 167301964, "lat": 40.4116383, "lon": -3.6979403, "tags": {"amenity": "bar"}}, {"type": "node", "id": 167302111, "lat": 40.4124453, "lon": -3.6961583, "tags": {"amenity": "bar", "name": "Fever", "wheelchair": "no"}}, {"type": "node", "id": 167302439, "lat": 40.4128038, "lon": -3.695685, "tags": {"amenity": "bar", "name": "La Hidria"}}, {"type": "node", "id": 167302513, "lat": 40.4129838, "lon": -3.6956873, "tags": {"amenity": "bar", "name": "La Esquina"}}, {"type": "node", "id": 167302636, "lat": 40.412803, "lon": -3.6946194}, {"type": "node", "id": 167302640, "lat": 40.413178, "lon": -3.6957012, "tags": {"name": "El Diario", "amenity": "bar", "addr:street": "Calle de las Huertas", "addr:housenumber": "69"}}, {"type": "node", "id": 167302641, "lat": 40.4136254, "lon": -3.6956999, "tags": {"addr:city": "Madrid", "addr:housenumber": "2", "addr:postcode": "28014", "addr:street": "Calle de Jes\u00fas", "amenity": "bar", "contact:facebook": "https://www.facebook.com/pages/Cervecer%C3%ADa-La-F%C3%A1brica/135300993192900", "contact:phone": "+34 913 69 06 71", "name": "La F\u00e1brica"}}, {"type": "node", "id": 167302645, "lat": 40.4135119, "lon": -3.6957073, "tags": {"amenity": "bar", "name": "Los Gatos", "wikidata": "Q57446751"}}, {"type": "node", "id": 167302652, "lat": 40.4133633, "lon": -3.695701, "tags": {"amenity": "bar", "name": "La Ancho\u00edta"}}, {"type": "node", "id": 167302693, "lat": 40.4141167, "lon": -3.6957942, "tags": {"addr:city": "Madrid", "addr:housenumber": "7", "addr:postcode": "28014", "addr:street": "Plaza de Jes\u00fas", "amenity": "bar", "contact:phone": "+34 91 389 62 38", "contact:website": "http://www.tabernadeladaniela.com/nuestras-danielas/la-daniela-medinaceli/", "name": "Taberna de la Daniela"}}, {"type": "node", "id": 184049359, "lat": 40.4191018, "lon": -3.7039069, "tags": {"amenity": "bar"}}, {"type": "node", "id": 546323709, "lat": 40.4035341, "lon": -3.690538, "tags": {"addr:city": "Madrid", "addr:housenumber": "7", "addr:postcode": "28045", "addr:street": "Calle del General Lacy", "amenity": "bar", "name": "El Rosario"}}, {"type": "node", "id": 622204625, "lat": 40.4143568, "lon": -3.7011949, "tags": {"amenity": "bar", "cuisine": "hawaiian", "name": "Bar Hawaiano Mauna Loa"}}, {"type": "node", "id": 831245136, "lat": 40.4038625, "lon": -3.6909403, "tags": {"name": "El Rinc\u00f3n de V\u00edctor", "amenity": "bar", "addr:street": "Calle de las Delicias"}}, {"type": "node", "id": 831245146, "lat": 40.4037318, "lon": -3.6909081, "tags": {"wikidata": "Q41958101", "name": "Bodegas Rosell", "amenity": "bar", "addr:city": "Madrid", "addr:housenumber": "14", "addr:postcode": "28045", "addr:street": "Calle del General Lacy"}}, {"type": "node", "id": 832787565, "lat": 40.4007679, "lon": -3.697439, "tags": {"name": "Taberna \"El Vag\u00f3n\"", "amenity": "bar", "addr:street": "Calle del Ferrocarril", "addr:housenumber": "33"}}, {"type": "node", "id": 977356078, "lat": 40.3992814, "lon": -3.6852496, "tags": {"amenity": "bar"}}, {"type": "node", "id": 977358919, "lat": 40.3994543, "lon": -3.6857194, "tags": {"amenity": "bar"}}, {"type": "node", "id": 1010972136, "lat": 40.411457, "lon": -3.6990693, "tags": {"name": "Mas coraz\u00f3n", "amenity": "bar", "recycling:cans": "yes", "recycling:glass": "yes", "recycling:paper": "yes"}}, {"type": "node", "id": 1108148051, "lat": 40.4057397, "lon": -3.705086}, {"type": "node", "id": 1108148187, "lat": 40.4057864, "lon": -3.7050706}, {"type": "node", "id": 1108148284, "lat": 40.4057989, "lon": -3.705135}, {"type": "node", "id": 1108148400, "lat": 40.4057522, "lon": -3.7051504}, {"type": "node", "id": 1108148451, "lat": 40.4057776, "lon": -3.7050237}, {"type": "node", "id": 1108148629, "lat": 40.4057612, "lon": -3.7051984}, {"type": "node", "id": 1108148762, "lat": 40.4058151, "lon": -3.7050613}, {"type": "node", "id": 1108148888, "lat": 40.4057262, "lon": -3.7051589}, {"type": "node", "id": 1108148907, "lat": 40.4058272, "lon": -3.7051259}, {"type": "node", "id": 1108148927, "lat": 40.4057141, "lon": -3.7050943}, {"type": "node", "id": 1108149214, "lat": 40.4057309, "lon": -3.7050388}, {"type": "node", "id": 1108149337, "lat": 40.405808, "lon": -3.7051833}, {"type": "node", "id": 1178447836, "lat": 40.4110231, "lon": -3.7048751, "tags": {"amenity": "bar", "addr:city": "Madrid", "addr:country": "ES", "addr:housenumber": "18", "addr:postcode": "28012", "addr:street": "Calle del Mes\u00f3n de Paredes", "name": "Marbella"}}, {"type": "node", "id": 1428141699, "lat": 40.4157993, "lon": -3.6995741, "tags": {"addr:city": "Madrid", "addr:country": "ES", "addr:housenumber": "7", "addr:postcode": "28014", "addr:street": "Calle de Echegaray", "amenity": "bar", "cuisine": "tapas", "description": "Mo-Su 12:30-15:30,19:30+", "name": "La Venencia", "opening_hours": "Mo-Su 12:30-15:30,19:30+"}}, {"type": "node", "id": 1517405726, "lat": 40.4163668, "lon": -3.7015661, "tags": {"amenity": "bar", "name": "La Fontana de Oro"}}, {"type": "node", "id": 1517405727, "lat": 40.4088976, "lon": -3.6990671, "tags": {"amenity": "bar", "name": "Il Morto Che Parla"}}, {"type": "node", "id": 1517405735, "lat": 40.4131464, "lon": -3.6960507, "tags": {"amenity": "bar", "cuisine": "irish", "name": "The Harp", "old_name": "The Variety"}}, {"type": "node", "id": 1556708387, "lat": 40.4110987, "lon": -3.7027101, "tags": {"amenity": "bar", "name": "Marimba", "old_name": "Taque?"}}, {"type": "node", "id": 1572572826, "lat": 40.4088323, "lon": -3.6989418, "tags": {"amenity": "bar", "name": "Bar San Lorenzo", "wheelchair": "limited"}}, {"type": "node", "id": 1645108307, "lat": 40.4125509, "lon": -3.7032669, "tags": {"amenity": "bar", "name": "C\u00f3mete el Mundo", "old_name": "La Tapa del Mundo"}}, {"type": "node", "id": 1669117644, "lat": 40.4071316, "lon": -3.6999115, "tags": {"amenity": "bar", "name": "La Mancha"}}, {"type": "node", "id": 1673070182, "lat": 40.4117164, "lon": -3.6746523, "tags": {"name": "Bar La Vuelta", "amenity": "bar", "wifi": "free"}}, {"type": "node", "id": 1751751626, "lat": 40.4142594, "lon": -3.6958188, "tags": {"name": "Cervantes", "amenity": "bar"}}, {"type": "node", "id": 1889602596, "lat": 40.4152479, "lon": -3.6737306, "tags": {"amenity": "bar"}}, {"type": "node", "id": 1890102330, "lat": 40.4152551, "lon": -3.673572, "tags": {"amenity": "bar"}}, {"type": "node", "id": 2261299371, "lat": 40.4141959, "lon": -3.7018671, "tags": {"addr:housenumber": "10", "addr:street": "Plaza del \u00c1ngel", "amenity": "bar", "name": "Caf\u00e9 Central", "source": "+34 913 69 41 43", "website": "https://www.cafecentralmadrid.com/"}}, {"type": "node", "id": 2261312784, "lat": 40.415455, "lon": -3.700385, "tags": {"amenity": "bar", "addr:street": "Calle del Pr\u00edncipe", "addr:housenumber": "16", "name": "Bar de la Comedia", "source": "+34 915 22 30 32 \u200e"}}, {"type": "node", "id": 2261314940, "lat": 40.4106999, "lon": -3.6978462, "tags": {"source": "+34 915 27 87 60", "name": "Vin\u00edcola Mentridana", "amenity": "bar", "addr:housenumber": "9", "addr:street": "Calle de San Eugenio"}}, {"type": "node", "id": 2297581601, "lat": 40.4054177, "lon": -3.6974199, "tags": {"amenity": "bar", "name": "El 89", "source": "survey"}}, {"type": "node", "id": 2357618842, "lat": 40.410931, "lon": -3.6943629, "tags": {"amenity": "bar", "name": "Marrakech", "wheelchair": "limited"}}, {"type": "node", "id": 2357765924, "lat": 40.412526, "lon": -3.6960781}, {"type": "node", "id": 2357767944, "lat": 40.4127704, "lon": -3.6963795, "tags": {"amenity": "bar", "name": "Donde Chelo", "old_name": "Monam\u00ed", "wheelchair": "limited"}}, {"type": "node", "id": 2360828616, "lat": 40.4125533, "lon": -3.6937344}, {"type": "node", "id": 2360828619, "lat": 40.4124675, "lon": -3.6939}, {"type": "node", "id": 2437723822, "lat": 40.4154628, "lon": -3.6995579, "tags": {"addr:city": "Madrid", "addr:housenumber": "15", "addr:postcode": "28014", "addr:street": "Calle de Echegaray", "amenity": "bar", "contact:email": "contacto@cardamomo.es", "contact:phone": "+34 918 051 038", "name": "Cardamomo", "website": "http://cardamomo.es/"}}, {"type": "node", "id": 2461314623, "lat": 40.4079502, "lon": -3.6970032, "tags": {"amenity": "bar", "name": "El Pedal", "addr:street": "Calle de Argumosa", "addr:postcode": "28012", "addr:housenumber": "33", "addr:city": "Madrid"}}, {"type": "node", "id": 2546777610, "lat": 40.4111209, "lon": -3.6986832, "tags": {"wheelchair": "limited", "addr:city": "Madrid", "addr:postcode": "28012", "addr:street": "Calle de Santa Isabel", "amenity": "bar", "name": "Bar el H\u00f3rreo"}}, {"type": "node", "id": 2552482048, "lat": 40.412697, "lon": -3.69464}, {"type": "node", "id": 2569444821, "lat": 40.4182665, "lon": -3.6963625, "tags": {"phone": "+34 911 234 567", "website": "http://www.azoteadelcirculo.com", "addr:city": "Madrid", "addr:country": "ES", "addr:housenumber": "42", "addr:postcode": "28014", "addr:street": "Calle de Alcal\u00e1", "amenity": "bar", "name": "Azotea de C\u00edrculo de Bellas Artes", "name:en": "Roof bar"}}, {"type": "node", "id": 2584073568, "lat": 40.4062821, "lon": -3.7014976, "tags": {"addr:state": "ES", "amenity": "bar", "name": "Donde da la vuelta el viento", "addr:street": "Calle del Mes\u00f3n de Paredes", "addr:postcode": "28012", "phone": "+34 91 017 7240", "website": "http://www.dondedalavueltaelviento.com", "addr:housenumber": "81", "addr:city": "Madrid", "addr:country": "ES"}}, {"type": "node", "id": 2597132609, "lat": 40.3949243, "lon": -3.7000665, "tags": {"amenity": "bar", "name": "Fernando Poo"}}, {"type": "node", "id": 2649377343, "lat": 40.4103086, "lon": -3.7017065, "tags": {"addr:city": "Madrid", "addr:housenumber": "6", "addr:postcode": "28012", "addr:street": "Calle de San Carlos", "amenity": "bar", "name": "Bodegas Lo M\u00e1ximo"}}, {"type": "node", "id": 2676403354, "lat": 40.4199417, "lon": -3.6791678, "tags": {"addr:city": "Madrid", "addr:country": "ES", "addr:housenumber": "17", "addr:postcode": "28009", "addr:street": "Avenida de Men\u00e9ndez Pelayo", "amenity": "bar", "name": "Casa Mart\u00edn"}}, {"type": "node", "id": 2676403357, "lat": 40.4202088, "lon": -3.6792635, "tags": {"addr:city": "Madrid", "addr:country": "ES", "amenity": "bar", "addr:street": "Avenida de Men\u00e9ndez Pelayo", "addr:postcode": "28009", "addr:housenumber": "15", "name": "B de J"}}, {"type": "node", "id": 2697521935, "lat": 40.4072207, "lon": -3.7039201, "tags": {"amenity": "bar", "name": "Oss I"}}, {"type": "node", "id": 2723834805, "lat": 40.4143535, "lon": -3.7009567, "tags": {"wikidata": "Q57446757", "addr:street": "Plaza del \u00c1ngel", "website": "https://cerveceriasantaana.com/", "phone": "+34 91 429 43 56", "addr:city": "Madrid", "addr:housenumber": "10", "addr:postcode": "28012", "amenity": "bar", "email": "info@cerveceriasantaana.com", "name": "Cervecer\u00eda Santa Ana", "name:zh": "\u559d\u5564\u9152\u7684\u597d\u5730\u65b9"}}, {"type": "node", "id": 2730780941, "lat": 40.4045265, "lon": -3.681082, "tags": {"amenity": "bar", "name": "Bodegas Casas"}}, {"type": "node", "id": 2961951473, "lat": 40.4125806, "lon": -3.6955875}, {"type": "node", "id": 2961951474, "lat": 40.4125846, "lon": -3.6955922}, {"type": "node", "id": 2961951475, "lat": 40.4125969, "lon": -3.6954463}, {"type": "node", "id": 2961951486, "lat": 40.4126916, "lon": -3.6944885}, {"type": "node", "id": 2961951487, "lat": 40.4127036, "lon": -3.6945885}, {"type": "node", "id": 2961951490, "lat": 40.4127255, "lon": -3.6944795}, {"type": "node", "id": 2961951492, "lat": 40.4127302, "lon": -3.6945151}, {"type": "node", "id": 2961951496, "lat": 40.4127379, "lon": -3.6944762}, {"type": "node", "id": 2961951500, "lat": 40.4127456, "lon": -3.694513}, {"type": "node", "id": 2961951506, "lat": 40.4127761, "lon": -3.6944661}, {"type": "node", "id": 3067686089, "lat": 40.4119165, "lon": -3.6995454}, {"type": "node", "id": 3190243419, "lat": 40.4071283, "lon": -3.7022347, "tags": {"amenity": "bar", "smoking": "no", "name": "La misa de 8:00", "addr:city": "Madrid", "addr:housenumber": "71", "addr:postcode": "28012", "addr:street": "Calle del Mes\u00f3n de Paredes"}}, {"type": "node", "id": 3250056456, "lat": 40.4023749, "lon": -3.6766332, "tags": {"amenity": "bar", "name": "Bodegas Casas"}}, {"type": "node", "id": 3251419496, "lat": 40.4080881, "lon": -3.6764858, "tags": {"name": "La F\u00e1brica de la Yaya", "amenity": "bar"}}, {"type": "node", "id": 3255244823, "lat": 40.4125276, "lon": -3.6939109}, {"type": "node", "id": 3255244825, "lat": 40.4125386, "lon": -3.6939075}, {"type": "node", "id": 3255244827, "lat": 40.4125473, "lon": -3.6938964}, {"type": "node", "id": 3255244828, "lat": 40.4125499, "lon": -3.69388}, {"type": "node", "id": 3365559335, "lat": 40.4106286, "lon": -3.6993993, "tags": {"addr:city": "Madrid", "addr:housenumber": "15", "addr:postcode": "28012", "addr:street": "Calle de la Torrecilla del Leal", "amenity": "bar", "contact:facebook": "https://www.facebook.com/elgatoverdelavapies/info?tab=overview", "name": "El Gato Verde", "phone": "+34 693 82 98 97"}}, {"type": "node", "id": 3365559336, "lat": 40.4105561, "lon": -3.6994856, "tags": {"addr:city": "Madrid", "addr:housenumber": "20", "addr:postcode": "28012", "addr:street": "Calle de la Torrecilla del Leal", "amenity": "bar", "name": "O Can Sentado"}}, {"type": "node", "id": 3381360107, "lat": 40.4144237, "lon": -3.7005074, "tags": {"addr:city": "Madrid", "addr:housenumber": "7", "addr:postcode": "28012", "addr:street": "Plaza de Santa Ana", "amenity": "bar", "name": "Santa Ca\u00f1a"}}, {"type": "node", "id": 3417781508, "lat": 40.4063237, "lon": -3.6931054, "tags": {"name": "Cervecer\u00eda Dom\u00ednguez", "amenity": "bar"}}, {"type": "node", "id": 3425030898, "lat": 40.4143547, "lon": -3.7025581, "tags": {"addr:city": "Madrid", "addr:housenumber": "14", "addr:postcode": "28012", "addr:street": "Plaza del \u00c1ngel", "amenity": "bar", "name": "Espa\u00f1a Ca\u00f1i", "smoking": "outside"}}, {"type": "node", "id": 3644961939, "lat": 40.4176096, "lon": -3.7027478, "tags": {"contact:phone": "+34 915326151", "contact:website": "http://cafeandtapas.com/", "name": "Caf\u00e9 y Tapas", "amenity": "bar", "addr:city": "Madrid", "addr:housenumber": "12", "addr:postcode": "28013", "addr:street": "Calle de la Montera"}}, {"type": "node", "id": 3646061906, "lat": 40.4074968, "lon": -3.7041258, "tags": {"amenity": "bar", "name": "El rinc\u00f3n guay"}}, {"type": "node", "id": 3646319859, "lat": 40.4092523, "lon": -3.7010746, "tags": {"name": "El Quijote", "amenity": "bar", "addr:city": "Madrid", "addr:housenumber": "52", "addr:street": "Calle del Ave Mar\u00eda"}}, {"type": "node", "id": 3646338430, "lat": 40.4108754, "lon": -3.7017624, "tags": {"addr:country": "ES", "addr:city": "Madrid", "addr:housenumber": "22", "addr:postcode": "28012", "addr:street": "Calle del Olivar", "amenity": "bar", "entrance": "main", "name": "Attack Bar", "website": "https://attack-bar.com/"}}, {"type": "node", "id": 3658075038, "lat": 40.4090502, "lon": -3.7050445, "tags": {"addr:street": "Calle del Mes\u00f3n de Paredes", "addr:city": "Madrid", "addr:country": "ES", "addr:housenumber": "15", "addr:postcode": "28012", "amenity": "bar", "name": "Label Bar"}}, {"type": "node", "id": 3671513869, "lat": 40.412279, "lon": -3.6996452, "tags": {"name": "La Covadonga", "contact:facebook": "https://es-es.facebook.com/pages/Bar-La-Covadonga/176333999058231", "addr:city": "Madrid", "addr:street": "Plazuela de Ant\u00f3n Mart\u00edn", "amenity": "bar"}}, {"type": "node", "id": 3671513870, "lat": 40.4115049, "lon": -3.6990954, "tags": {"addr:city": "Madrid", "addr:housenumber": "14", "addr:postcode": "28012", "addr:street": "Calle de Santa Isabel", "amenity": "bar", "contact:facebook": "https://es-es.facebook.com/TerralBarRestauranteImaginarioDeArtelibre", "contact:phone": "+34 914 68 61 39", "name": "Terral"}}, {"type": "node", "id": 3690989816, "lat": 40.419891, "lon": -3.6988045, "tags": {"addr:city": "Madrid", "addr:housenumber": "16", "addr:postcode": "28004", "addr:street": "Calle de la Reina", "amenity": "bar", "contact:email": "joseastiarraga@barcock.com", "contact:website": "http://www.barcock.com/", "name": "Bar Cock"}}, {"type": "node", "id": 3693017821, "lat": 40.4202392, "lon": -3.6997082, "tags": {"addr:city": "Madrid", "addr:housenumber": "17", "addr:postcode": "28004", "addr:street": "Calle de la Reina", "amenity": "bar", "contact:facebook": "https://es-es.facebook.com/pages/Reina-17-Bar/442689142517834", "name": "Reina 17"}}, {"type": "node", "id": 3695391153, "lat": 40.4096288, "lon": -3.6959942, "tags": {"name": "K\u00e1rdamom", "amenity": "bar", "addr:street": "Calle de Santa Isabel", "addr:city": "Madrid", "addr:housenumber": "47", "addr:postcode": "28012"}}, {"type": "node", "id": 3695444229, "lat": 40.4097575, "lon": -3.6964233, "tags": {"addr:city": "Madrid", "addr:housenumber": "45", "addr:postcode": "28012", "addr:street": "Calle de Santa Isabel", "amenity": "bar", "contact:phone": "+34 917 528 625", "contact:website": "http://www.oliveto.es/", "name": "Oliveto"}}, {"type": "node", "id": 3695444230, "lat": 40.4100302, "lon": -3.6969732, "tags": {"addr:city": "Madrid", "addr:housenumber": "35", "addr:postcode": "28012", "addr:street": "Calle de Santa Isabel", "amenity": "bar", "contact:facebook": "https://es-es.facebook.com/pages/Taberna-El-Sur/160484570662848", "name": "M\u00e1s al Sur"}}, {"type": "node", "id": 3695444233, "lat": 40.4107039, "lon": -3.6980387, "tags": {"wheelchair": "no", "addr:city": "Madrid", "addr:housenumber": "15", "addr:postcode": "28012", "addr:street": "Calle de Santa Isabel", "amenity": "bar", "contact:facebook": "https://www.facebook.com/barbenteveo", "contact:phone": "+34 911 39 85 03", "name": "Bar Benteveo"}}, {"type": "node", "id": 3695444235, "lat": 40.4116328, "lon": -3.6992032, "tags": {"addr:city": "Madrid", "addr:housenumber": "12", "addr:postcode": "28012", "addr:street": "Calle de Santa Isabel", "amenity": "bar", "contact:phone": "+34 667 96 94 39", "name": "La Pe\u00f1a"}}, {"type": "node", "id": 3695444238, "lat": 40.4147897, "lon": -3.704081, "tags": {"name": "Ol\u00e9", "contact:facebook": "https://www.facebook.com/TabernaOle", "addr:city": "Madrid", "addr:housenumber": "4", "addr:street": "Calle de la Bolsa", "amenity": "bar"}}, {"type": "node", "id": 3703256002, "lat": 40.4148456, "lon": -3.70463, "tags": {"addr:city": "Madrid", "addr:housenumber": "3", "addr:postcode": "28012", "addr:street": "Calle de la Bolsa", "amenity": "bar", "name": "Taberna 3"}}, {"type": "node", "id": 3713711216, "lat": 40.4161971, "lon": -3.7003311, "tags": {"addr:city": "Madrid", "addr:postcode": "28012", "addr:street": "Calle del Pr\u00edncipe", "amenity": "bar", "name": "La Marmita"}}, {"type": "node", "id": 3713711219, "lat": 40.4159636, "lon": -3.7004172, "tags": {"addr:housenumber": "10", "addr:city": "Madrid", "addr:postcode": "28012", "addr:street": "Calle del Pr\u00edncipe", "amenity": "bar", "contact:facebook": "https://www.facebook.com/pages/El-Barografo/121833831189848", "name": "El Bar\u00f3grafo"}}, {"type": "node", "id": 3722399386, "lat": 40.4033442, "lon": -3.696229, "tags": {"addr:city": "Madrid", "addr:country": "ES", "addr:housenumber": "8", "addr:postcode": "28045", "addr:street": "Calle Batalla del Salado", "amenity": "bar", "name": "La Taberna del T\u00edo Inda"}}, {"type": "node", "id": 3773310859, "lat": 40.4125334, "lon": -3.6960196}, {"type": "node", "id": 3773310860, "lat": 40.4126219, "lon": -3.6960126}, {"type": "node", "id": 3779498165, "lat": 40.4124402, "lon": -3.697977}, {"type": "node", "id": 3779498184, "lat": 40.412305, "lon": -3.6980167}, {"type": "node", "id": 3779498187, "lat": 40.4125344, "lon": -3.6979461}, {"type": "node", "id": 3791776571, "lat": 40.4119252, "lon": -3.6997189}, {"type": "node", "id": 3791776572, "lat": 40.4119433, "lon": -3.6995508}, {"type": "node", "id": 3791776584, "lat": 40.4119119, "lon": -3.699717}, {"type": "node", "id": 3794195960, "lat": 40.4121627, "lon": -3.7004808}, {"type": "node", "id": 3794195961, "lat": 40.412328, "lon": -3.7004871}, {"type": "node", "id": 3794195964, "lat": 40.4123012, "lon": -3.7004857}, {"type": "node", "id": 3794200501, "lat": 40.4121401, "lon": -3.7010637}, {"type": "node", "id": 3794200502, "lat": 40.4123122, "lon": -3.7010667}, {"type": "node", "id": 3794200510, "lat": 40.4122298, "lon": -3.7010666}, {"type": "node", "id": 3794201623, "lat": 40.412139, "lon": -3.7011413}, {"type": "node", "id": 3802745969, "lat": 40.4193001, "lon": -3.704452, "tags": {"addr:city": "Madrid", "addr:country": "ES", "addr:housenumber": "8", "addr:postcode": "28013", "addr:street": "Calle de Mesonero Romanos", "amenity": "bar", "name": "DNorte", "phone": "+34 911 10 13 24", "website": "https://tabernadnorte.com/"}}, {"type": "node", "id": 3811073759, "lat": 40.4110055, "lon": -3.6985248}, {"type": "node", "id": 3811073760, "lat": 40.4110073, "lon": -3.6985038}, {"type": "node", "id": 3946850007, "lat": 40.4181072, "lon": -3.7026663, "tags": {"amenity": "bar", "name": "Caf\u00e9 real cake"}}, {"type": "node", "id": 3946850017, "lat": 40.4196251, "lon": -3.7019167, "tags": {"amenity": "bar", "name": "Tapa Tapa"}}, {"type": "node", "id": 3949468025, "lat": 40.4172288, "lon": -3.6998773, "tags": {"amenity": "bar", "name": "Hontanares"}}, {"type": "node", "id": 3976300418, "lat": 40.4162502, "lon": -3.7016123, "tags": {"addr:city": "Madrid", "addr:housenumber": "3", "addr:postcode": "28012", "addr:street": "Calle de la Victoria", "amenity": "bar", "contact:facebook": "https://www.facebook.com/Cerveceria-Cruz-de-Malta-443679125827986/info/?tab=overview", "name": "Cervecer\u00eda Cruz de Malta"}}, {"type": "node", "id": 3976330522, "lat": 40.4123063, "lon": -3.6979541}, {"type": "node", "id": 3981547227, "lat": 40.4107864, "lon": -3.6993648, "tags": {"addr:city": "Madrid", "addr:housenumber": "15", "addr:postcode": "28012", "addr:street": "Calle de los Tres Peces", "amenity": "bar", "contact:facebook": "https://es-es.facebook.com/CasaPachuco/info/?tab=overview", "name": "Casa Pachuco"}}, {"type": "node", "id": 3993194016, "lat": 40.415488, "lon": -3.7022561, "tags": {"addr:city": "Madrid", "addr:country": "ES", "addr:housenumber": "9", "addr:postcode": "28012", "addr:street": "Calle de Espoz y Mina", "amenity": "bar", "name": "Bodegas Melibea"}}, {"type": "node", "id": 4005582086, "lat": 40.4065284, "lon": -3.7013382, "tags": {"name": "La Mancha en Madrid", "amenity": "bar"}}, {"type": "node", "id": 4012426925, "lat": 40.4189616, "lon": -3.7012856, "tags": {"addr:city": "Madrid", "addr:housenumber": "7", "addr:postcode": "28013", "addr:street": "Calle de los Jardines", "amenity": "bar", "contact:phone": "+34 915 233 917", "contact:website": "http://www.elrincondeliberico.com/", "name": "El Rinc\u00f3n del Ib\u00e9rico"}}, {"type": "node", "id": 4171202753, "lat": 40.4160644, "lon": -3.7020569, "tags": {"addr:city": "Madrid", "addr:postcode": "28012", "addr:street": "Pasage de Matheu", "amenity": "bar", "name": "O' Reilly's"}}, {"type": "node", "id": 4208169376, "lat": 40.4044817, "lon": -3.6956587, "tags": {"amenity": "bar", "name": "Casa Ecuador"}}, {"type": "node", "id": 4213675798, "lat": 40.4159135, "lon": -3.7023903, "tags": {"addr:city": "Madrid", "addr:housenumber": "8", "addr:postcode": "28012", "addr:street": "Calle de Espoz y Mina", "amenity": "bar", "contact:website": "http://maskcopas.com/espozymina/", "name": "+KCopas"}}, {"type": "node", "id": 4213675800, "lat": 40.4156614, "lon": -3.7023791, "tags": {"amenity": "bar", "contact:facebook": "https://es-la.facebook.com/CafeDelSoulMadrid/info/?tab=overview", "contact:phone": "+34 915 23 16 06", "name": "Caf\u00e9 del Soul", "addr:city": "Madrid", "addr:housenumber": "14", "addr:postcode": "28012", "addr:street": "Calle de Espoz y Mina"}}, {"type": "node", "id": 4213675804, "lat": 40.4153666, "lon": -3.7013578, "tags": {"addr:city": "Madrid", "addr:postcode": "28012", "addr:street": "Calle de N\u00fa\u00f1ez de Arce", "amenity": "bar", "contact:website": "http://copasrotas.es/#!/inicio", "name": "Copas Rotas"}}, {"type": "node", "id": 4237517692, "lat": 40.4151873, "lon": -3.6993627, "tags": {"addr:city": "Madrid", "addr:housenumber": "13", "addr:postcode": "28014", "addr:street": "Calle de Manuel Fern\u00e1ndez y Gonz\u00e1lez", "amenity": "bar", "contact:facebook": "https://es-es.facebook.com/CARBONES13", "contact:phone": "+34 913 69 46 65", "name": "Carbones 13"}}, {"type": "node", "id": 4237517693, "lat": 40.4154975, "lon": -3.7012292, "tags": {"addr:city": "Madrid", "addr:housenumber": "9", "addr:postcode": "28012", "addr:street": "Calle de N\u00fa\u00f1ez de Arce", "amenity": "bar", "contact:website": "http://www.en-babia.com/", "name": "En Babia"}}, {"type": "node", "id": 4333420091, "lat": 40.4061361, "lon": -3.7013996, "tags": {"contact:facebook": "https://es-es.facebook.com/Loukanikos-Lavapi%C3%A9s-359201754182338/", "opening_hours": "Mo-Su 19:00-24:00", "name": "Loukanikos", "addr:city": "Madrid", "addr:housenumber": "81", "addr:postcode": "28012", "addr:street": "Calle del Mes\u00f3n de Paredes", "amenity": "bar", "cuisine": "diner;burger", "diet:vegan": "yes", "diet:vegetarian": "only"}}, {"type": "node", "id": 4333435289, "lat": 40.4132503, "lon": -3.6966134, "tags": {"addr:city": "Madrid", "addr:country": "ES", "addr:housenumber": "55", "addr:postcode": "28014", "addr:street": "Calle de las Huertas", "amenity": "bar", "name": "Trocha, el lugar de la caipirinha"}}, {"type": "node", "id": 4333435389, "lat": 40.4054878, "lon": -3.7014668, "tags": {"name": "Borodin", "amenity": "bar"}}, {"type": "node", "id": 4337709993, "lat": 40.4130463, "lon": -3.6976405, "tags": {"name": "Dos Gardenias", "addr:city": "Madrid", "addr:country": "ES", "addr:housenumber": "13", "addr:postcode": "28014", "addr:street": "Calle de Santa Mar\u00eda", "amenity": "bar"}}, {"type": "node", "id": 4348851889, "lat": 40.4148442, "lon": -3.7027669, "tags": {"addr:housenumber": "26", "addr:street": "Calle de la Cruz", "amenity": "bar", "name": "Essential Flamenco"}}, {"type": "node", "id": 4394691965, "lat": 40.4147985, "lon": -3.6995295, "tags": {"amenity": "bar", "wheelchair": "no", "contact:website": "https://www.brewwildpizzabar.com/", "old_name": "Hedwig", "name": "Brew Wild Pizza Bar", "addr:street": "Calle de Echegaray", "addr:postcode": "28014", "addr:city": "Madrid", "addr:housenumber": "23"}}, {"type": "node", "id": 4394691970, "lat": 40.4140743, "lon": -3.6988836, "tags": {"addr:city": "Madrid", "addr:housenumber": "10", "addr:postcode": "28014", "addr:street": "Calle del Le\u00f3n", "amenity": "bar", "contact:website": "http://www.stopmadrid.es/", "name": "Stop Madrid", "wikidata": "Q64657695"}}, {"type": "node", "id": 4410312392, "lat": 40.4058234, "lon": -3.6732714, "tags": {"amenity": "bar", "internet_access": "wlan", "name": "La Central"}}, {"type": "node", "id": 4410312393, "lat": 40.4054247, "lon": -3.6733359, "tags": {"amenity": "bar", "internet_access": "wlan", "name": "Bar Serrano"}}, {"type": "node", "id": 4410384489, "lat": 40.4060177, "lon": -3.6728228, "tags": {"amenity": "bar", "internet_access": "wlan", "name": "Bodega Estebaranz"}}, {"type": "node", "id": 4410384589, "lat": 40.4057868, "lon": -3.6730203, "tags": {"amenity": "bar", "name": "La Giralda"}}, {"type": "node", "id": 4456198032, "lat": 40.4135303, "lon": -3.6997793, "tags": {"addr:city": "Madrid", "addr:housenumber": "4", "addr:postcode": "28012", "addr:street": "Plaza de Matute", "amenity": "bar", "contact:website": "http://medaigual.es/", "name": "Medaigual"}}, {"type": "node", "id": 4456198034, "lat": 40.4123237, "lon": -3.697011, "tags": {"name": "Little Rose", "contact:phone": "+34 918 05 84 83", "addr:city": "Madrid", "addr:housenumber": "16", "addr:street": "Calle de Morat\u00edn", "amenity": "bar", "contact:facebook": "https://es-es.facebook.com/rockandrollbarlittlerose/"}}, {"type": "node", "id": 4551178965, "lat": 40.4167322, "lon": -3.7013431, "tags": {"addr:city": "Madrid", "addr:housenumber": "7", "addr:postcode": "28014", "addr:street": "Carrera de San Jer\u00f3nimo", "amenity": "bar", "contact:facebook": "https://www.facebook.com/pages/Cervecer%C3%ADa-La-Risue%C3%B1a/247790291986907", "name": "La Risue\u00f1a"}}, {"type": "node", "id": 4605881300, "lat": 40.4084567, "lon": -3.7000624, "tags": {"name:es": "Maldito Querer", "amenity": "bar", "name": "Maldito Querer"}}, {"type": "node", "id": 4650312592, "lat": 40.4144685, "lon": -3.7003452, "tags": {"name": "Confiter\u00eda Alemana", "name:es": "Confiter\u00eda Alemana", "addr:city": "Madrid", "addr:country": "ES", "addr:housenumber": "6", "addr:postcode": "28012", "addr:street": "Plaza de Santa Ana", "amenity": "bar", "cuisine": "burger;breakfast;sausage;seafood;spanish;german;diner;tapas", "internet_access": "wlan"}}, {"type": "node", "id": 4678508174, "lat": 40.4125228, "lon": -3.6966166, "tags": {"addr:city": "Madrid", "addr:housenumber": "6", "addr:postcode": "28014", "addr:street": "Costanilla de los Desamparados", "amenity": "bar", "contact:website": "http://dumbarton-com.webnode.es/", "name": "Dumbarton"}}, {"type": "node", "id": 4680243989, "lat": 40.4103167, "lon": -3.6953327, "tags": {"amenity": "bar"}}, {"type": "node", "id": 4703100726, "lat": 40.4116807, "lon": -3.703075, "tags": {"addr:city": "Madrid", "addr:housenumber": "8", "addr:postcode": "28012", "addr:street": "Calle de Lavapi\u00e9s", "amenity": "bar", "contact:facebook": "https://es-es.facebook.com/rincondelcabo/", "contact:phone": "+34 602 66 95 75", "name": "El Rinc\u00f3n del Cabo"}}, {"type": "node", "id": 4704036991, "lat": 40.4089631, "lon": -3.7004832, "tags": {"amenity": "bar"}}, {"type": "node", "id": 4708418864, "lat": 40.4149146, "lon": -3.6987189, "tags": {"name": "La Galer\u00eda", "addr:city": "Madrid", "addr:country": "ES", "addr:housenumber": "13", "addr:postcode": "28014", "addr:street": "Calle del Prado", "amenity": "bar", "contact:phone": "+34914293437"}}, {"type": "node", "id": 4725920295, "lat": 40.4110994, "lon": -3.6994105, "tags": {"addr:city": "Madrid", "addr:housenumber": "9", "addr:postcode": "28012", "addr:street": "Calle de la Torrecilla del Leal", "amenity": "bar", "name": "Caf\u00e9 Dor\u00e9"}}, {"type": "node", "id": 4728017998, "lat": 40.3966992, "lon": -3.6979798, "tags": {"addr:city": "Madrid", "addr:housenumber": "15", "addr:postcode": "28045", "addr:street": "Calle de Jaime I El Conquistador", "amenity": "bar", "name": "Mes\u00f3n Las Tinajas", "outdoor_seating": "no"}}, {"type": "node", "id": 4736042046, "lat": 40.4196679, "lon": -3.6989403, "tags": {"addr:city": "Madrid", "addr:housenumber": "12", "addr:postcode": "28013", "addr:street": "Gran V\u00eda", "amenity": "bar", "contact:phone": "+34 91 532 67 37", "contact:website": "http://grupomercadodelareina.com/es/museo-chicote/", "name": "Museo Chicote"}}, {"type": "node", "id": 4739735331, "lat": 40.4149539, "lon": -3.6995366, "tags": {"addr:city": "Madrid", "addr:housenumber": "19", "addr:postcode": "28014", "addr:street": "Calle de Echegaray", "amenity": "bar", "name": "El Burladero"}}, {"type": "node", "id": 4739735332, "lat": 40.4149017, "lon": -3.6995344, "tags": {"addr:city": "Madrid", "addr:housenumber": "21", "addr:postcode": "28014", "addr:street": "Calle de Echegaray", "amenity": "bar", "contact:facebook": "https://es-es.facebook.com/SalmonGuru/", "contact:phone": "+34 910 00 61 85", "name": "Salmon Guru"}}, {"type": "node", "id": 4747225322, "lat": 40.4149638, "lon": -3.7022678, "tags": {"amenity": "bar", "name": "Bar Las Bravas"}}, {"type": "node", "id": 4754154224, "lat": 40.3994086, "lon": -3.6985884, "tags": {"name:es": "La Peque\u00f1a Gran\u00e1", "name": "La Peque\u00f1a Gran\u00e1", "amenity": "bar"}}, {"type": "node", "id": 4754155222, "lat": 40.419335, "lon": -3.7002362, "tags": {"amenity": "bar", "name": "El Rinc\u00f3n Abulense", "name:es": "El Rinc\u00f3n Abulense"}}, {"type": "node", "id": 4774553325, "lat": 40.4202705, "lon": -3.6910959, "tags": {"addr:city": "Madrid", "addr:housenumber": "8", "addr:postcode": "28001", "addr:street": "Calle del Marqu\u00e9s del Duero", "amenity": "bar", "contact:facebook": "https://es-es.facebook.com/St-Johns-cocteler%C3%ADa-402940313168045/", "contact:phone": "+34 91 575 81 66", "contact:website": "http://cocteleria-stjohns.com/", "name": "St John's"}}, {"type": "node", "id": 4860719221, "lat": 40.4196538, "lon": -3.6989195, "tags": {"name": "Museo Chicote", "amenity": "bar", "addr:housenumber": "12", "addr:street": "Gran V\u00eda"}}, {"type": "node", "id": 4860765421, "lat": 40.4171759, "lon": -3.7046191, "tags": {"addr:state": "ES", "wikidata": "Q5754287", "name": "Casa Labra", "amenity": "bar", "addr:city": "Madrid", "addr:country": "ES", "addr:housenumber": "12", "addr:postcode": "28013", "addr:street": "Calle de Tetu\u00e1n"}}, {"type": "node", "id": 4891907321, "lat": 40.41265, "lon": -3.6958247, "tags": {"amenity": "bar", "name": "Neila", "name:es": "Neila"}}, {"type": "node", "id": 4955422621, "lat": 40.4062676, "lon": -3.6986849, "tags": {"addr:state": "ES", "name:es": "La Rosa", "name": "La Rosa", "addr:city": "Madrid", "addr:country": "ES", "addr:housenumber": "30", "addr:postcode": "28012", "addr:street": "Ronda de Atocha", "amenity": "bar"}}, {"type": "node", "id": 4957310223, "lat": 40.3975205, "lon": -3.6941368, "tags": {"amenity": "bar", "name": "Layka"}}, {"type": "node", "id": 4957310524, "lat": 40.3976535, "lon": -3.6944988, "tags": {"amenity": "bar", "name": "El Deleite", "name:es": "El Deleite"}}, {"type": "node", "id": 4957311723, "lat": 40.4009086, "lon": -3.6934744, "tags": {"amenity": "bar", "name": "Cervecer\u00eda La Cuca\u00f1a", "wheelchair": "no"}}, {"type": "node", "id": 4957320721, "lat": 40.397935, "lon": -3.6944647, "tags": {"amenity": "bar", "name": "Ochenta y Ocho", "name:es": "Ochenta y Ocho"}}, {"type": "node", "id": 4962094221, "lat": 40.4066616, "lon": -3.6830571, "tags": {"addr:state": "ES", "addr:city": "Madrid", "addr:country": "ES", "addr:housenumber": "6", "addr:postcode": "28014", "addr:street": "Paseo de la Reina Cristina", "amenity": "bar", "name": "Kubo King", "name:es": "Kubo King", "opening_hours": "Mo-Su 12:00-01:00", "phone": "+34910128581", "website": "https://www.kuboking.com/"}}, {"type": "node", "id": 4993237443, "lat": 40.4066797, "lon": -3.6972145, "tags": {"name:es": "Kubo King", "name": "Kubo King", "addr:housenumber": "16", "addr:postcode": "28012", "addr:street": "Ronda de Atocha", "amenity": "bar", "cuisine": "tapas"}}, {"type": "node", "id": 4993404121, "lat": 40.4069506, "lon": -3.6993839, "tags": {"addr:state": "ES", "addr:city": "Madrid", "addr:country": "ES", "addr:housenumber": "37", "addr:postcode": "28012", "addr:street": "Calle del Doctor Fourquet", "amenity": "bar", "cuisine": "tapas", "name": "La Chulapa en Mayrit", "name:es": "La Chulapa en Mayrit"}}, {"type": "node", "id": 5032336821, "lat": 40.4147201, "lon": -3.7027758, "tags": {"name:en": "Matador", "amenity": "bar", "name": "Matador"}}, {"type": "node", "id": 5034003623, "lat": 40.4145746, "lon": -3.7029709, "tags": {"addr:housenumber": "39", "addr:street": "Calle de la Cruz", "amenity": "bar", "name": "Matador"}}, {"type": "node", "id": 5079363529, "lat": 40.4103687, "lon": -3.7010895, "tags": {"amenity": "bar", "name": "Liber Arte Cantina Cultural", "name:es": "Liber Arte Cantina Cultural"}}, {"type": "node", "id": 5157971721, "lat": 40.4161231, "lon": -3.7010454, "tags": {"addr:housenumber": "6", "addr:postcode": "28012", "addr:street": "Calle de la Cruz", "amenity": "bar", "cuisine": "spanish", "name": "Nueva Galicia"}}, {"type": "node", "id": 5160386431, "lat": 40.4072234, "lon": -3.6796753, "tags": {"amenity": "bar", "name": "Casa Ruth"}}, {"type": "node", "id": 5160386432, "lat": 40.4074282, "lon": -3.7031961, "tags": {"addr:housenumber": "23", "addr:street": "Calle de Tribulete", "amenity": "bar", "contact:facebook": "https://es-es.facebook.com/tribuetxe/", "cuisine": "tapas", "name": "Tribuetxe"}}, {"type": "node", "id": 5160387423, "lat": 40.418611, "lon": -3.6903516, "tags": {"addr:housenumber": "5", "addr:postcode": "28014", "addr:street": "Calle de Alfonso XI", "amenity": "bar", "cuisine": "spanish", "name": "Los Jer\u00f3nimos", "opening_hours": "Mo-Fr 07:00-23:00; Sa 09:00-16:00", "phone": "+34 915315827"}}, {"type": "node", "id": 5254201763, "lat": 40.4086442, "lon": -3.7049146, "tags": {"addr:street": "Calle de los Embajadores", "amenity": "bar", "name": "La taberna Viajera", "addr:city": "Madrid", "addr:housenumber": "31", "addr:postcode": "28012"}}, {"type": "node", "id": 5254725021, "lat": 40.4141925, "lon": -3.6987173, "tags": {"addr:city": "Madrid", "addr:country": "ES", "addr:housenumber": "9", "addr:postcode": "28014", "addr:street": "Calle del Le\u00f3n", "amenity": "bar", "name": "La Piola"}}, {"type": "node", "id": 5260979921, "lat": 40.4146189, "lon": -3.6985488, "tags": {"addr:city": "Madrid", "addr:country": "ES", "addr:housenumber": "3", "addr:postcode": "28014", "addr:street": "Calle del Le\u00f3n", "amenity": "bar", "name": "Casa Pueblo"}}, {"type": "node", "id": 5263805022, "lat": 40.4133019, "lon": -3.6957, "tags": {"name": "Stop Madrid", "amenity": "bar", "addr:street": "Calle de Jes\u00fas", "addr:housenumber": "4"}}, {"type": "node", "id": 5276492232, "lat": 40.3935946, "lon": -3.6905902, "tags": {"amenity": "bar", "name": "Tania"}}, {"type": "node", "id": 5317053622, "lat": 40.4069766, "lon": -3.7009786, "tags": {"name": "Juan Raro", "amenity": "bar"}}, {"type": "node", "id": 5324342178, "lat": 40.4065537, "lon": -3.6775869, "tags": {"opening_hours": "Su 12:00-23:30, Tu-We 18:00-23:30, Th 12:00-24:00, Fr-Sa 12:00-01:30", "addr:city": "Madrid", "addr:housenumber": "36", "addr:postcode": "28007", "addr:street": "Calle de Narciso Serra", "amenity": "bar", "name": "La Fermenter\u00eda", "outdoor_seating": "no", "smoking": "no"}}, {"type": "node", "id": 5349835423, "lat": 40.4153573, "lon": -3.7003671, "tags": {"amenity": "bar", "name": "Montaditos"}}, {"type": "node", "id": 5410560221, "lat": 40.4151298, "lon": -3.6998997, "tags": {"amenity": "bar", "name": "College night"}}, {"type": "node", "id": 5454502421, "lat": 40.4086315, "lon": -3.699529, "tags": {"amenity": "bar", "name": "Cafe de Ratas"}}, {"type": "node", "id": 5471326121, "lat": 40.4090679, "lon": -3.6989314, "tags": {"amenity": "bar", "name": "Caminito"}}, {"type": "node", "id": 5498929486, "lat": 40.4195578, "lon": -3.7015238, "tags": {"amenity": "bar", "name": "Barde Madrid", "wheelchair": "no", "addr:city": "Madrid", "addr:housenumber": "46", "addr:postcode": "28013", "addr:street": "Calle de la Montera", "contact:phone": "+34 911 99 58 82", "contact:website": "http://bardemadrid.com/"}}, {"type": "node", "id": 5600629224, "lat": 40.4136942, "lon": -3.6995373, "tags": {"addr:city": "Madrid", "addr:country": "ES", "addr:housenumber": "22", "addr:postcode": "28014", "addr:street": "Calle de las Huertas", "amenity": "bar", "name": "Blackbird Rock Bar"}}, {"type": "node", "id": 5862704186, "lat": 40.4029392, "lon": -3.6960563, "tags": {"addr:street": "Calle de Palos de la Frontera", "amenity": "bar", "name": "Las sobrinas"}}, {"type": "node", "id": 5866570285, "lat": 40.3995328, "lon": -3.6712626, "tags": {"amenity": "bar", "phone": "+34 915 52 10 67", "addr:city": "Madrid", "addr:country": "ES", "addr:housenumber": "105", "addr:postcode": "28007", "addr:street": "Avenida de la Ciudad de Barcelona", "name": "Femary", "opening_hours": "Mo-Su 08:00-01:00"}}, {"type": "node", "id": 6205487468, "lat": 40.4128914, "lon": -3.6906978, "tags": {"note": "Bar al aire libre. Su licencia dice que puede tener 3 mesas. Tiene unas 6. Pero qu\u00e9 es eso en #Madrid?", "amenity": "bar", "addr:street": "Calle Espalter", "name": "El Jardinero", "outdoor_seating": "yes", "addr:city": "Madrid", "addr:housenumber": "5", "addr:postcode": "28014"}}, {"type": "node", "id": 6301948285, "lat": 40.3998824, "lon": -3.6942697, "tags": {"amenity": "bar", "name": "La Pepa"}}, {"type": "node", "id": 6361391104, "lat": 40.3975112, "lon": -3.6711093, "tags": {"amenity": "bar", "name": "Casa Rosita"}}, {"type": "node", "id": 6382139638, "lat": 40.4124892, "lon": -3.6937344}, {"type": "node", "id": 6382139640, "lat": 40.4124811, "lon": -3.6937807}, {"type": "node", "id": 6382139643, "lat": 40.4127399, "lon": -3.6946403}, {"type": "node", "id": 6382139652, "lat": 40.4126524, "lon": -3.6955916}, {"type": "node", "id": 6382139653, "lat": 40.4126671, "lon": -3.6954521}, {"type": "node", "id": 6382139661, "lat": 40.4126329, "lon": -3.6960657}, {"type": "node", "id": 6382140190, "lat": 40.4125339, "lon": -3.6978972}, {"type": "node", "id": 6429337126, "lat": 40.4109811, "lon": -3.6984773}, {"type": "node", "id": 6429337127, "lat": 40.4109376, "lon": -3.6985865}, {"type": "node", "id": 6429337128, "lat": 40.4109791, "lon": -3.6986077}, {"type": "node", "id": 6431838244, "lat": 40.4118977, "lon": -3.699715}, {"type": "node", "id": 6431838838, "lat": 40.4123101, "lon": -3.701138}, {"type": "node", "id": 6431838858, "lat": 40.4121645, "lon": -3.7003971}, {"type": "node", "id": 6431838859, "lat": 40.41233, "lon": -3.7004067}, {"type": "node", "id": 6448649485, "lat": 40.4159756, "lon": -3.6995699, "tags": {"opening_hours": "14:00-16:00, 20:30-23:30", "name": "S\u00f3lo de croquetas", "amenity": "bar"}}, {"type": "node", "id": 6483369677, "lat": 40.417037, "lon": -3.6748699, "tags": {"addr:city": "Madrid", "addr:country": "ES", "addr:housenumber": "25", "addr:postcode": "28009", "addr:street": "Calle del Alcalde S\u00e1inz de Baranda", "amenity": "bar", "name": "El Rat\u00f3n Vaquero"}}, {"type": "node", "id": 6485860385, "lat": 40.396209, "lon": -3.6929558, "tags": {"phone": "+34 918 27 79 75", "opening_hours": "Mo-Fr 09:00-18:00", "addr:housenumber": "13", "addr:postcode": "28045", "addr:street": "Calle Juan de Vera", "amenity": "bar", "name": "El Txoko"}}, {"type": "node", "id": 6629513285, "lat": 40.4152483, "lon": -3.7014011, "tags": {"addr:housenumber": "14", "addr:street": "Calle de N\u00fa\u00f1ez de Arce", "amenity": "bar", "name": "La Ramona"}}, {"type": "node", "id": 6651753087, "lat": 40.4193576, "lon": -3.6772879, "tags": {"amenity": "bar", "name": "La Catapa"}}, {"type": "node", "id": 6727823385, "lat": 40.4163937, "lon": -3.7016167, "tags": {"amenity": "bar", "name": "La fontana de oro", "name:en": "La fontana de oro", "name:es": "La fontana de oro"}}, {"type": "node", "id": 6739252381, "lat": 40.4066683, "lon": -3.7014482, "tags": {"amenity": "bar", "description": "Griego y mediterraneo", "name": "El rinc\u00f3n de hercules"}}, {"type": "node", "id": 6759110321, "lat": 40.4043287, "lon": -3.70074, "tags": {"name": "El Atrak\u00f3n", "amenity": "bar", "addr:housenumber": "7", "addr:street": "Calle de Sebastian Elcano"}}, {"type": "node", "id": 6815285996, "lat": 40.4125742, "lon": -3.6959645, "tags": {"addr:city": "Madrid", "addr:housenumber": "35", "addr:postcode": "28014", "addr:street": "Calle de Morat\u00edn", "amenity": "bar", "name": "Jazz Bar", "phone": "+34 914 29 70 31"}}, {"type": "node", "id": 6958405685, "lat": 40.4074522, "lon": -3.6951676, "tags": {"name": "Nubel", "amenity": "bar"}}, {"type": "node", "id": 6965525845, "lat": 40.407688, "lon": -3.6963181, "tags": {"name": "Argumosa 39", "amenity": "bar"}}, {"type": "node", "id": 7137233887, "lat": 40.408066, "lon": -3.6992477, "tags": {"amenity": "bar", "name": "La Chingada Mix"}}, {"type": "node", "id": 7285375885, "lat": 40.4148124, "lon": -3.7037475, "tags": {"amenity": "bar", "name": "100 Montaditos"}}, {"type": "node", "id": 7865946785, "lat": 40.3936993, "lon": -3.6969188, "tags": {"amenity": "bar", "name": "Barra Fina"}}, {"type": "node", "id": 8234892317, "lat": 40.4182439, "lon": -3.6961228, "tags": {"website": "http://bocanegraterraza.eltenedor.rest/en_GB/", "addr:housenumber": "1", "addr:postcode": "28014", "addr:street": "Calle del Marqu\u00e9s de Casa Riera", "amenity": "bar", "cuisine": "burger;spanish", "name": "BOCANEGRA", "opening_hours": "Mo-Su 11:00-01:30"}}, {"type": "node", "id": 8464311346, "lat": 40.4089663, "lon": -3.7004882, "tags": {"description": "bar", "amenity": "bar", "name": "Pianola"}}, {"type": "way", "id": 95564929, "nodes": [1108148907, 1108148762, 1108148187, 1108148451, 1108149214, 1108148051, 1108148927, 1108148888, 1108148400, 1108148629, 1108149337, 1108148284, 1108148907], "tags": {"name": "Quiosco de la Reina", "building": "yes", "amenity": "bar"}}, {"type": "way", "id": 681503965, "nodes": [2360828616, 6382139638, 6382139640, 2360828619, 3255244823, 3255244825, 3255244827, 3255244828, 2360828616], "tags": {"wheelchair:description": "Doble escal\u00f3n, espacio reducido y ba\u00f1o no adaptado", "wheelchair": "no", "addr:city": "Madrid", "addr:country": "ES", "addr:housenumber": "1", "addr:postcode": "28014", "addr:street": "Plaza de la Plater\u00eda de Mart\u00ednez", "amenity": "bar", "name": "La Taper\u00eda"}}, {"type": "way", "id": 681503969, "nodes": [2552482048, 6382139643, 167302636, 2961951506, 2961951496, 2961951500, 2961951492, 2961951490, 2961951486, 2961951487, 2552482048], "tags": {"addr:city": "Madrid", "addr:country": "ES", "addr:housenumber": "48", "addr:postcode": "28014", "addr:street": "Calle de Morat\u00edn", "alt_name": "Bar Roda", "amenity": "bar", "level": "0", "name": "Caf\u00e9-Bar Roda", "wheelchair": "no", "wheelchair:description": "No hay rampa, ba\u00f1o no adecuado."}}, {"type": "way", "id": 681503974, "nodes": [6382139652, 6382139653, 2961951475, 2961951473, 2961951474, 6382139652], "tags": {"amenity": "bar", "level": "0", "name": "La Maripepa"}}, {"type": "way", "id": 681503977, "nodes": [2357765924, 6382139661, 3773310860, 3773310859, 2357765924], "tags": {"amenity": "bar", "level": "0", "name": "Taberna de Conspiradores", "wheelchair": "no"}}, {"type": "way", "id": 681503990, "nodes": [3976330522, 6382140190, 3779498187, 3779498165, 3779498184, 3976330522], "tags": {"name": "Fogg Bar", "level": "0", "contact:website": "http://www.foggbar.es/fogg-bar-birras-cheese/", "addr:city": "Madrid", "addr:housenumber": "5", "addr:postcode": "28014", "addr:street": "Calle de Morat\u00edn", "amenity": "bar", "contact:phone": "+34 91 821 38 04"}}, {"type": "way", "id": 685982256, "nodes": [6429337128, 6429337127, 6429337126, 3811073760, 3811073759, 6429337128], "tags": {"name": "Cervecer\u00eda Cafeter\u00eda El Horreo", "amenity": "bar"}}, {"type": "way", "id": 686207596, "nodes": [3794200502, 3794200510, 3794200501, 3794201623, 6431838838, 3794200502], "tags": {"addr:city": "Madrid", "addr:housenumber": "20", "addr:street": "Calle de la Magdalena", "amenity": "bar", "name": "Meson El 20"}}, {"type": "way", "id": 686207607, "nodes": [6431838859, 6431838858, 3794195960, 3794195964, 3794195961, 6431838859], "tags": {"amenity": "bar", "name": "Las Horas"}}, {"type": "way", "id": 686207623, "nodes": [3067686089, 6431838244, 3791776584, 3791776571, 3791776572, 3067686089], "tags": {"addr:city": "Madrid", "addr:housenumber": "8", "addr:postcode": "28012", "addr:street": "Calle de Santa Isabel", "amenity": "bar", "contact:website": "http://taskaparrondo.blogspot.com.es/", "level": "0", "name": "Parrondo", "smoking": "outside"}}]}