{"version": 0.6, "generator": "Overpass API 0.7.62.1 084b4234", "osm3s": {"timestamp_osm_base": "2024-10-06T15:54:56Z", "copyright": "The data included in this document is from www.openstreetmap.org. The data is made available under ODbL."}, "elements": [{"type": "node", "id": 184049157, "lat": 40.4190934, "lon": -3.7080823, "tags": {"name": "Locutorio", "amenity": "internet_cafe"}}, {"type": "node", "id": 1556708431, "lat": 40.4103111, "lon": -3.7027854, "tags": {"amenity": "internet_cafe", "internet_access": "yes"}}, {"type": "node", "id": 1651680259, "lat": 40.4077511, "lon": -3.7477685, "tags": {"amenity": "internet_cafe", "name": "CiberStar Locutorio"}}, {"type": "node", "id": 1669117638, "lat": 40.4352106, "lon": -3.7179439, "tags": {"amenity": "internet_cafe", "name": "Conectate"}}, {"type": "node", "id": 2129712520, "lat": 40.4064103, "lon": -3.7493489, "tags": {"amenity": "internet_cafe"}}, {"type": "node", "id": 2304484515, "lat": 40.3912572, "lon": -3.7380588, "tags": {"amenity": "internet_cafe"}}, {"type": "node", "id": 2316161843, "lat": 40.3980999, "lon": -3.7730924, "tags": {"amenity": "internet_cafe", "name": "F\u00e1cil Locutorio"}}, {"type": "node", "id": 2316161850, "lat": 40.3981687, "lon": -3.7734106, "tags": {"amenity": "internet_cafe", "name": "Locutorio Ivette"}}, {"type": "node", "id": 2689631486, "lat": 40.4238714, "lon": -3.7099755, "tags": {"amenity": "internet_cafe", "addr:street": "Calle de los Reyes", "name": "Reyes 19", "addr:postcode": "28015", "addr:housenumber": "19", "addr:city": "Madrid"}}, {"type": "node", "id": 3770327498, "lat": 40.4713057, "lon": -3.6931208, "tags": {"amenity": "internet_cafe", "name": "Silver Env\u00edos 2", "wheelchair": "no", "wheelchair:description": "escalones muy grandes"}}, {"type": "node", "id": 4390454904, "lat": 40.414904, "lon": -3.7049488, "tags": {"amenity": "internet_cafe", "name": "Locutorio Semitel"}}, {"type": "node", "id": 4594765778, "lat": 40.4315792, "lon": -3.7133035, "tags": {"addr:city": "Madrid", "addr:housenumber": "12", "addr:postcode": "28015", "addr:street": "Calle de Guzm\u00e1n el Bueno", "amenity": "internet_cafe", "internet_access": "yes", "internet_access:fee": "yes", "name": "Locutorio Internet"}}, {"type": "node", "id": 4598539595, "lat": 40.4626721, "lon": -3.7026526, "tags": {"amenity": "internet_cafe", "fee": "yes", "name": "locutorio"}}, {"type": "node", "id": 4709955566, "lat": 40.4160397, "lon": -3.7094535, "tags": {"addr:city": "Madrid", "addr:housenumber": "4", "addr:postcode": "28013", "addr:street": "Calle de los Milaneses", "amenity": "internet_cafe"}}, {"type": "node", "id": 4713495347, "lat": 40.4243101, "lon": -3.7145079, "tags": {"addr:city": "Madrid", "addr:housenumber": "24", "addr:postcode": "28008", "addr:street": "Calle de Ventura Rodr\u00edguez", "amenity": "internet_cafe", "name": "Toda Direcci\u00f3n", "website": "http://www.cybercafetd.com/"}}, {"type": "node", "id": 5412144560, "lat": 40.4087173, "lon": -3.7107327, "tags": {"amenity": "internet_cafe", "addr:street": "Calle de Toledo", "addr:postcode": "28005", "addr:city": "Madrid", "addr:housenumber": "90"}}, {"type": "node", "id": 5496183582, "lat": 40.4234759, "lon": -3.704906, "tags": {"addr:city": "Madrid", "addr:housenumber": "12", "addr:postcode": "28004", "addr:street": "Calle del Pez", "amenity": "internet_cafe"}}, {"type": "node", "id": 5573414444, "lat": 40.4291607, "lon": -3.7039983, "tags": {"addr:city": "Madrid", "addr:housenumber": "13", "addr:postcode": "28004", "addr:street": "Calle de Carranza", "amenity": "internet_cafe", "wheelchair": "no"}}, {"type": "node", "id": 6236012809, "lat": 40.4749214, "lon": -3.7142265, "tags": {"amenity": "internet_cafe"}}, {"type": "node", "id": 6922981312, "lat": 40.4255623, "lon": -3.7022458, "tags": {"amenity": "internet_cafe", "name": "Locutorio"}}, {"type": "node", "id": 8093379759, "lat": 40.4237045, "lon": -3.7075396, "tags": {"amenity": "internet_cafe", "addr:street": "Calle de San Bernardo", "addr:postcode": "28015", "addr:city": "Madrid", "addr:housenumber": "41"}}, {"type": "node", "id": 8094474780, "lat": 40.4234958, "lon": -3.7078496, "tags": {"addr:city": "Madrid", "addr:housenumber": "6", "addr:postcode": "28015", "addr:street": "Calle de Antonio Grilo", "amenity": "internet_cafe", "name": "Sami"}}, {"type": "node", "id": 8491951300, "lat": 40.4507106, "lon": -3.704597, "tags": {"amenity": "internet_cafe", "name": "Locutorio"}}]}